NORAD_CAT_ID,OBJECT_NAME,OBJECT_TYPE,EPOCH,MEAN_MOTION,ECCENTRICITY,INCLINATION,RA_OF_ASC_NODE,ARG_OF_PERICENTER,MEAN_ANOMALY,BSTAR,MEAN_MOTION_DOT,MEAN_MOTION_DDOT,TLE_LINE0,TLE_LINE1,TLE_LINE2,SEMIMAJOR_AXIS,PERIOD,APOGEE,PERIGEE,DECAYED
53738.0,STARLINK-4662,PAYLOAD,2023-07-10 16:04:15,15.0884771,9.75e-05,53.2179,311.9493,89.7871,270.3233,8.0413e-05,9.93e-06,0.0,0 STARLINK-4662,1 53738U 22107AQ  23191.66962030  .00000993  00000-0  80413-4 0  9997,2 53738  53.2179 311.9493 0000975  89.7871 270.3233 15.08847710 46928,6917.857,95.437,540.396,539.047,0.0
53738.0,STARLINK-4662,PAYLOAD,2023-07-11 07:58:07,15.08833292,9.06e-05,53.2172,308.978,82.0353,278.0742,7.9478e-05,9.77e-06,0.0,0 STARLINK-4662,1 53738U 22107AQ  23192.33202883  .00000977  00000-0  79478-4 0  9996,2 53738  53.2172 308.9780 0000906  82.0353 278.0742 15.08833292 47023,6917.901,95.438,540.393,539.139,0.0
53738.0,STARLINK-4662,PAYLOAD,2023-07-11 17:30:25,15.0884322,0.0001151,53.2181,307.1919,92.8109,267.3015,6.5621e-05,7.57e-06,0.0,0 STARLINK-4662,1 53738U 22107AQ  23192.72946387  .00000757  00000-0  65621-4 0  9994,2 53738  53.2181 307.1919 0001151  92.8109 267.3015 15.08843220 47081,6917.871,95.437,540.532,538.939,0.0
53738.0,STARLINK-4662,PAYLOAD,2023-07-13 14:01:14,15.08826794,9.42e-05,53.2174,298.8648,84.3437,275.7663,0.00015073,2.111e-05,0.0,0 STARLINK-4662,1 53738U 22107AQ  23194.58419199  .00002111  00000-0  15073-3 0  9997,2 53738  53.2174 298.8648 0000942  84.3437 275.7663 15.08826794 47365,6917.921,95.438,540.437,539.134,0.0
53738.0,STARLINK-4662,PAYLOAD,2023-07-14 15:27:24,15.08834581,0.0001108,53.2183,294.1122,87.0616,273.0503,6.7273e-05,7.83e-06,0.0,0 STARLINK-4662,1 53738U 22107AQ  23195.64403264  .00000783  00000-0  67273-4 0  9994,2 53738  53.2183 294.1122 0001108  87.0616 273.0503 15.08834581 47520,6917.897,95.438,540.528,538.995,0.0
53738.0,STARLINK-4662,PAYLOAD,2023-07-15 23:15:07,15.08833397,0.0001225,53.2176,288.1648,92.6182,267.4951,1.9979e-05,3e-07,0.0,0 STARLINK-4662,1 53738U 22107AQ  23196.96883855  .00000030  00000-0  19979-4 0  9993,2 53738  53.2176 288.1648 0001225  92.6182 267.4951 15.08833397 47728,6917.901,95.438,540.613,538.918,0.0
53738.0,STARLINK-4662,PAYLOAD,2023-07-17 13:24:22,15.08848555,0.0001132,53.2168,281.0245,90.3774,269.7347,5.6644e-05,6.14e-06,0.0,0 STARLINK-4662,1 53738U 22107AQ  23198.55859055  .00000614  00000-0  56644-4 0  9993,2 53738  53.2168 281.0245 0001132  90.3774 269.7347 15.08848555 47965,6917.854,95.437,540.502,538.936,0.0
53738.0,STARLINK-4662,PAYLOAD,2023-07-18 11:39:46,15.08842628,0.0001109,53.2167,276.8616,95.2958,264.816,5.3029e-05,5.56e-06,0.0,0 STARLINK-4662,1 53738U 22107AQ  23199.48595352  .00000556  00000-0  53029-4 0  9992,2 53738  53.2167 276.8616 0001109  95.2958 264.8160 15.08842628 48101,6917.872,95.437,540.505,538.97,0.0
53738.0,STARLINK-4662,PAYLOAD,2023-07-19 09:55:11,15.08834888,0.0001315,53.2164,272.6987,90.7015,269.4128,-4.8024e-05,-1.052e-05,0.0,0 STARLINK-4662,1 53738U 22107AQ  23200.41332298 -.00001052  00000-0 -48024-4 0  9999,2 53738  53.2164 272.6987 0001315  90.7015 269.4128 15.08834888 48245,6917.896,95.438,540.671,538.851,0.0
53738.0,STARLINK-4662,PAYLOAD,2023-07-20 14:32:07,15.08828313,0.0001353,53.2165,267.3445,112.2181,247.8955,0.00019882,2.877e-05,0.0,0 STARLINK-4662,1 53738U 22107AQ  23201.60563881  .00002877  00000-0  19882-3 0  9998,2 53738  53.2165 267.3445 0001353 112.2181 247.8955 15.08828313 48426,6917.916,95.438,540.717,538.845,0.0
53738.0,STARLINK-4662,PAYLOAD,2023-07-21 03:15:12,15.08870623,0.000104,53.2162,264.9661,112.0282,248.0821,-0.00032521,-5.464e-05,0.0,0 STARLINK-4662,1 53738U 22107AQ  23202.13555556 -.00005464  00000-0 -32521-3 0  9999,2 53738  53.2162 264.9661 0001040 112.0282 248.0821 15.08870623 48504,6917.787,95.436,540.371,538.932,0.0
53738.0,STARLINK-4662,PAYLOAD,2023-07-21 08:01:21,15.08839911,0.0001196,53.2161,264.0741,104.1234,255.9891,0.00010275,1.348e-05,0.0,0 STARLINK-4662,1 53738U 22107AQ  23202.33427550  .00001348  00000-0  10275-3 0  9990,2 53738  53.2161 264.0741 0001196 104.1234 255.9891 15.08839911 48536,6917.881,95.438,540.573,538.918,0.0
53738.0,STARLINK-4662,PAYLOAD,2023-07-24 10:44:29,15.08838853,0.0001122,53.216,250.0994,74.1319,285.9797,4.9875e-05,5.06e-06,0.0,0 STARLINK-4662,1 53738U 22107AQ  23205.44756157  .00000506  00000-0  49875-4 0  9997,2 53738  53.2160 250.0994 0001122  74.1319 285.9797 15.08838853 49633,6917.884,95.438,540.525,538.973,0.0
53738.0,STARLINK-4662,PAYLOAD,2023-07-25 10:35:16,15.0884135,0.0001367,53.2163,245.6395,66.4301,293.6835,3.4661e-05,2.64e-06,0.0,0 STARLINK-4662,1 53738U 22107AQ  23206.44116228  .00000264  00000-0  34661-4 0  9995,2 53738  53.2163 245.6395 0001367  66.4301 293.6835 15.08841350 49788,6917.876,95.437,540.687,538.796,0.0
53738.0,STARLINK-4662,PAYLOAD,2023-07-26 12:01:26,15.08841643,0.0001111,53.2149,240.8795,95.4392,264.6727,4.7749e-05,4.72e-06,0.0,0 STARLINK-4662,1 53738U 22107AQ  23207.50099909  .00000472  00000-0  47749-4 0  9991,2 53738  53.2149 240.8795 0001111  95.4392 264.6727 15.08841643 49943,6917.875,95.437,540.509,538.972,0.0
53738.0,STARLINK-4662,PAYLOAD,2023-07-27 07:06:03,15.0884145,0.0001237,53.2161,237.31,87.1006,273.0128,3.8222e-05,3.21e-06,0.0,0 STARLINK-4662,1 53738U 22107AQ  23208.29587954  .00000321  00000-0  38222-4 0  9999,2 53738  53.2161 237.3100 0001237  87.1006 273.0128 15.08841450 50067,6917.876,95.437,540.597,538.885,0.0
53738.0,STARLINK-4662,PAYLOAD,2023-07-28 06:56:51,15.08833622,0.0001203,53.2161,232.8502,92.8612,267.2518,-4.76e-05,-1.045e-05,0.0,0 STARLINK-4662,1 53738U 22107AQ  23209.28948837 -.00001045  00000-0 -47600-4 0  9996,2 53738  53.2161 232.8502 0001203  92.8612 267.2518 15.08833622 49587,6917.9,95.438,540.597,538.933,0.0
53738.0,STARLINK-4662,PAYLOAD,2023-07-28 11:43:01,15.08832638,0.0001183,53.216,231.9587,88.9875,271.1252,-5.8065e-05,-1.212e-05,0.0,0 STARLINK-4662,1 53738U 22107AQ  23209.48821023 -.00001212  00000-0 -58065-4 0  9998,2 53738  53.2160 231.9587 0001183  88.9875 271.1252 15.08832638 50243,6917.903,95.438,540.586,538.95,0.0
53738.0,STARLINK-4662,PAYLOAD,2023-07-29 17:55:20,15.08835659,0.0001102,53.2159,226.3093,89.2355,270.8763,5.6677e-05,6.14e-06,0.0,0 STARLINK-4662,1 53738U 22107AQ  23210.74676777  .00000614  00000-0  56677-4 0  9993,2 53738  53.2159 226.3093 0001102  89.2355 270.8763 15.08835659 49808,6917.894,95.438,540.521,538.996,0.0
53738.0,STARLINK-4662,PAYLOAD,2023-07-31 09:39:59,15.0884025,0.0001195,53.2161,218.8743,91.3631,268.7498,4.3498e-05,4.04e-06,0.0,0 STARLINK-4662,1 53738U 22107AQ  23212.40276810  .00000404  00000-0  43498-4 0  9996,2 53738  53.2161 218.8743 0001195  91.3631 268.7498 15.08840250 50055,6917.88,95.438,540.571,538.918,0.0
53738.0,STARLINK-4662,PAYLOAD,2023-07-31 23:58:27,15.08835726,0.0001272,53.2162,216.1981,89.4767,270.6371,-1.7929e-05,-5.73e-06,0.0,0 STARLINK-4662,1 53738U 22107AQ  23212.99893369 -.00000573  00000-0 -17929-4 0  9993,2 53738  53.2162 216.1981 0001272  89.4767 270.6371 15.08835726 50149,6917.893,95.438,540.638,538.878,0.0
53738.0,STARLINK-4662,PAYLOAD,2023-08-01 17:27:42,15.08840468,0.000119,53.2159,212.9269,90.4019,269.711,1.0179e-05,-1.26e-06,0.0,0 STARLINK-4662,1 53738U 22107AQ  23213.72757018 -.00000126  00000-0  10179-4 0  9998,2 53738  53.2159 212.9269 0001190  90.4019 269.7110 15.08840468 50250,6917.879,95.438,540.567,538.921,0.0
53738.0,STARLINK-4662,PAYLOAD,2023-08-02 10:56:56,15.08845773,0.0001185,53.2158,209.6563,86.9568,273.156,7.8671e-05,9.65e-06,0.0,0 STARLINK-4662,1 53738U 22107AQ  23214.45620384  .00000965  00000-0  78671-4 0  9995,2 53738  53.2158 209.6563 0001185  86.9568 273.1560 15.08845773 50366,6917.863,95.437,540.548,538.908,0.0
53738.0,STARLINK-4662,PAYLOAD,2023-08-03 02:50:47,15.08836619,0.0001186,53.2162,206.6825,88.0282,272.0846,2.5202e-05,1.13e-06,0.0,0 STARLINK-4662,1 53738U 22107AQ  23215.11861106  .00000113  00000-0  25202-4 0  9995,2 53738  53.2162 206.6825 0001186  88.0282 272.0846 15.08836619 50461,6917.891,95.438,540.576,538.935,0.0
53738.0,STARLINK-4662,PAYLOAD,2023-08-03 10:47:43,15.08842592,0.0001215,53.2163,205.1958,87.8244,272.2887,7.2442e-05,8.65e-06,0.0,0 STARLINK-4662,1 53738U 22107AQ  23215.44980596  .00000865  00000-0  72442-4 0  9998,2 53738  53.2163 205.1958 0001215  87.8244 272.2887 15.08842592 50511,6917.872,95.437,540.578,538.897,0.0
53738.0,STARLINK-4662,PAYLOAD,2023-08-04 02:41:35,15.08818531,0.000126,53.217,202.2215,98.368,261.7455,0.00018019,2.579e-05,0.0,0 STARLINK-4662,1 53738U 22107AQ  23216.11221883  .00002579  00000-0  18019-3 0  9993,2 53738  53.2170 202.2215 0001260  98.3680 261.7455 15.08818531 50615,6917.946,95.439,540.683,538.939,0.0
53738.0,STARLINK-4662,PAYLOAD,2023-08-04 09:03:07,15.08836765,0.0001353,53.217,201.0316,97.2989,262.8157,-4.2975e-05,-9.72e-06,0.0,0 STARLINK-4662,1 53738U 22107AQ  23216.37717376 -.00000972  00000-0 -42975-4 0  9994,2 53738  53.2170 201.0316 0001353  97.2989 262.8157 15.08836765 50651,6917.89,95.438,540.691,538.819,0.0
53738.0,STARLINK-4662,PAYLOAD,2023-08-05 05:43:08,15.08842007,0.0001292,53.2166,197.1671,96.6775,263.4364,3.5311e-05,2.74e-06,0.0,0 STARLINK-4662,1 53738U 22107AQ  23217.23828882  .00000274  00000-0  35311-4 0  9994,2 53738  53.2166 197.1671 0001292  96.6775 263.4364 15.08842007 50780,6917.874,95.437,540.633,538.845,0.0
53738.0,STARLINK-4662,PAYLOAD,2023-08-06 05:33:55,15.08836261,0.0001199,53.2164,192.7078,88.4105,271.7024,3.028e-05,1.94e-06,0.0,0 STARLINK-4662,1 53738U 22107AQ  23218.23189421  .00000194  00000-0  30280-4 0  9995,2 53738  53.2164 192.7078 0001199  88.4105 271.7024 15.08836261 50939,6917.892,95.438,540.586,538.927,0.0
53738.0,STARLINK-4662,PAYLOAD,2023-08-07 08:35:29,15.08838258,0.0001343,53.2167,187.6513,93.1016,267.013,-4.9935e-05,-1.082e-05,0.0,0 STARLINK-4662,1 53738U 22107AQ  23219.35798003 -.00001082  00000-0 -49935-4 0  9997,2 53738  53.2167 187.6513 0001343  93.1016 267.0130 15.08838258 51108,6917.886,95.438,540.68,538.822,0.0
